INTELSAT 26 (IS-26)     
1 24732U 97007A   20118.38614463  .00000011  00000-0  00000-0 0  9990
2 24732   8.9707  43.2814 0007808 355.0140  20.1554  1.00270957 84802
GALAXY 25 (G-25)        
1 24812U 97026A   20118.52362843  .00000160  00000-0  00000-0 0  9993
2 24812   1.8049  90.7999 0002731 312.6777  33.8491  1.00273383 83893
INTELSAT 5 (IS-5)       
1 24916U 97046A   20118.63312933  .00000095  00000-0  00000+0 0  9993
2 24916   5.6091  65.8352 0003657 355.4286 245.7510  1.00274936 83139
INTELSAT 805 (IS-805)   
1 25371U 98037A   20118.62480650  .00000084  00000-0  00000-0 0  9990
2 25371   2.3365  88.1164 0007905 100.1683 101.6726  0.99476968 80062
GALAXY 11 (G-11)        
1 26038U 99071A   20118.49850448 -.00000157  00000-0  00000-0 0  9993
2 26038   1.0840  97.0462 0000786 198.0407   7.2323  1.00271714 74609
INTELSAT 9 (IS-9)       
1 26451U 00043A   20118.35419543 -.00000281  00000-0  00000-0 0  9993
2 26451   5.5965  66.0367 0002503 326.2131 261.0705  1.00270635 21666
INTELSAT 12 (IS-12)     
1 26590U 00068A   20118.52982218  .00000017  00000-0  00000-0 0  9993
2 26590   2.8133  86.6093 0005368 337.9648  46.3738  1.00273338 71326
INTELSAT 1R (IS-1R)     
1 26608U 00072A   20118.58852941 -.00000134  00000-0  00000+0 0  9993
2 26608   2.6204  86.5254 0000245  55.2258  83.2305  1.00267356 71173
INTELSAT 10 (IS-10)     
1 26766U 01019A   20118.52650721  .00000129  00000-0  00000-0 0  9990
2 26766   3.7771  79.2883 0002200 331.8576  41.8691  1.00274333 23162
INTELSAT 901 (IS-901)   
1 26824U 01024A   20118.86144317 -.00000198  00000-0  00000-0 0  9994
2 26824   0.0683  65.1822 0001936  81.5428 352.2120  1.00272086   575
INTELSAT 902 (IS-902)   
1 26900U 01039A   20118.43525845 -.00000277  00000-0  00000-0 0  9995
2 26900   0.4989  97.0693 0007317 249.2508 335.9949  1.00297236 68232
DIRECTV 4S              
1 26985U 01052A   20118.73468127 -.00000123  00000-0  00000-0 0  9995
2 26985   0.5846  95.1729 0005789 308.7917  81.3558  0.99266658 67512
INTELSAT 904 (IS-904)   
1 27380U 02007A   20118.43935854 -.00000209  00000-0  00000+0 0  9993
2 27380   1.3377  93.7377 0002639 303.3338 307.4857  1.00272028 66606
INTELSAT 903 (IS-903)   
1 27403U 02016A   20118.50679191 -.00000193  00000-0  00000-0 0  9999
2 27403   2.1212  88.6546 0002202 280.4931 337.7695  0.99016740 23197
DIRECTV 5 (TEMPO 1)     
1 27426U 02023A   20118.56924906 -.00000051  00000-0  00000-0 0  9998
2 27426   0.0109 253.7093 0003303 140.5703 276.5500  1.00270533 65851
INTELSAT 905 (IS-905)   
1 27438U 02027A   20118.36861021 -.00000179  00000-0  00000+0 0  9991
2 27438   1.1577  94.6579 0002721 287.7277 301.6443  1.00272844 65481
GALAXY 3C (G-3C)        
1 27445U 02030A   20118.49806830 -.00000147  00000-0  00000-0 0  9990
2 27445   0.0194 292.1505 0002240  31.7822 336.2654  1.00273383 65471
INTELSAT 906 (IS-906)   
1 27513U 02041A   20118.52982218  .00000019  00000-0  00000+0 0  9993
2 27513   0.1638 101.9352 0002278 307.5678  61.3421  1.00272957 64497
INTELSAT 907 (IS-907)   
1 27683U 03007A   20118.86144317 -.00000199  00000-0  00000-0 0  9992
2 27683   0.1082  90.1544 0002614 316.8879  91.8536  1.00267768 62969
GALAXY 12 (G-12)        
1 27715U 03013B   20118.59766516  .00000063  00000-0  00000-0 0  9995
2 27715   1.3742  92.9542 0001787 298.0239 271.2148  1.00272577 29667
GALAXY 23 (G-23)        
1 27854U 03034A   20118.39327333  .00000018  00000-0  00000+0 0  9999
2 27854   0.0225 260.3326 0003152 147.6034 188.4833  1.00270912 66060
GALAXY 13 (HORIZONS 1)  
1 27954U 03044A   20118.59861081  .00000053  00000-0  00000-0 0  9996
2 27954   0.0272 109.9601 0001071 295.1987 259.3464  1.00271420 24091
DIRECTV 7S              
1 28238U 04016A   20118.61566733  .00000006  00000-0  00000-0 0  9999
2 28238   0.0201 123.3450 0003023 276.9612 278.3241  1.00271838 58580
INTELSAT 10-02          
1 28358U 04022A   20118.79652236 -.00000007  00000-0  00000-0 0  9994
2 28358   0.0152 244.1046 0002923 174.0416  83.8561  1.00271744 58185
XM-3 (RHYTHM)           
1 28626U 05008A   20118.55439111 -.00000201  00000-0  00000+0 0  9991
2 28626   0.0163  25.7595 0000234 214.3752  90.3349  1.00268507 55582
SPACEWAY 1              
1 28644U 05015A   20118.52624552  .00000004  00000-0  00000-0 0  9992
2 28644   0.9925  93.9834 0002754 352.6767   4.9668  0.98489105 24093
DIRECTV 8               
1 28659U 05019A   20118.49128994 -.00000112  00000-0  00000+0 0  9997
2 28659   0.0183 245.0493 0002998 135.6948 271.2975  1.00271465 54700
GALAXY 28 (G-28)        
1 28702U 05022A   20118.49928962 -.00000181  00000-0  00000+0 0  9999
2 28702   0.0041 249.7122 0002633 140.3382 276.6135  1.00271707 54349
GALAXY 14 (G-14)        
1 28790U 05030A   20118.64177056  .00000041  00000-0  00000-0 0  9997
2 28790   0.0279  23.0544 0002329  10.9256 288.1459  1.00273702 53831
GALAXY 15 (G-15)        
1 28884U 05041A   20118.34033726  .00000083  00000-0  00000+0 0  9990
2 28884   0.0136 263.5411 0001778 128.0838 173.6582  1.00273810 53144
SPACEWAY 2              
1 28903U 05046B   20118.63258480  .00000108  00000-0  00000+0 0  9993
2 28903   0.0940  82.9915 0000186 218.5668   3.3573  1.00273093 53017
GALAXY 16 (G-16)        
1 29236U 06023A   20118.57675049 -.00000123  00000-0  00000-0 0  9995
2 29236   0.0162 256.3265 0002637 138.7774 289.5401  1.00272392 50748
DIRECTV 9S              
1 29494U 06043A   20118.40679865 -.00000108  00000-0  00000-0 0  9998
2 29494   0.0186 178.3778 0002843 213.5647 229.1495  1.00271095 28929
XM-4 (BLUES)            
1 29520U 06049A   20118.48142199 -.00000019  00000-0  00000+0 0  9997
2 29520   0.0075  10.7014 0000121 330.2242 293.0506  1.00272697 49513
GALAXY 17 (G-17)        
1 31307U 07016B   20118.49885344 -.00000170  00000-0  00000+0 0  9993
2 31307   0.0043  35.2287 0003480  13.3530 255.9661  1.00271705 47592
DIRECTV 10              
1 31862U 07032A   20118.22799321 -.00000098  00000-0  00000-0 0  9997
2 31862   0.0036  11.8377 0000293 231.5397 311.6379  1.00271137 23133
SPACEWAY 3              
1 32018U 07036A   20118.55469205 -.00000147  00000-0  00000+0 0  9990
2 32018   0.0180  35.0388 0000260 288.6680 357.0411  1.00270941 46643
INTELSAT 11 (IS-11)     
1 32253U 07044B   20118.43665424 -.00000264  00000-0  00000+0 0  9998
2 32253   0.0144 273.6122 0001940 154.8681 261.6210  1.00271571 46053
HORIZONS 2              
1 32388U 07063B   20118.85331340 -.00000179  00000-0  00000-0 0  9997
2 32388   0.0143 283.0304 0003032 108.4923 216.8132  1.00271409 45386
DIRECTV 11              
1 32729U 08013A   20118.61699682 -.00000122  00000-0  00000+0 0  9999
2 32729   0.0065  51.1634 0000117 194.3377  93.5014  1.00273948 44452
GALAXY 18 (G-18)        
1 32951U 08024A   20118.60211602  .00000029  00000-0  00000-0 0  9995
2 32951   0.0152 262.7385 0003028 141.6643 265.3924  1.00272037 23414
INTELSAT 25 (IS-25)     
1 33153U 08034A   20118.36721443 -.00000219  00000-0  00000-0 0  9995
2 33153   0.0205 252.2706 0001857  86.6398 337.5974  1.00272500 43157
GALAXY 19 (G-19)        
1 33376U 08045A   20118.53443184 -.00000135  00000-0  00000+0 0  9992
2 33376   0.0142 263.5712 0003026 137.3432 270.4676  1.00268555 42359
SIRIUS FM-5             
1 35493U 09034A   20118.55439111 -.00000196  00000-0  00000-0 0  9998
2 35493   0.0234 289.5815 0001066  76.8669 322.9942  1.00271915 24225
INTELSAT 14 (IS-14)     
1 36097U 09064A   20118.36451014 -.00000269  00000-0  00000-0 0  9998
2 36097   0.0208 140.4802 0002402 258.3965 263.1764  1.00271786 38228
INTELSAT 15 (IS-15)     
1 36106U 09067A   20118.85331363 -.00000182  00000-0  00000-0 0  9994
2 36106   0.0182 277.4846 0002293 129.7409 201.4143  1.00270394 18836
DIRECTV 12              
1 36131U 09075A   20118.57484993 -.00000099  00000-0  00000-0 0  9995
2 36131   0.0093 235.9393 0000156  79.3656   4.8768  1.00271958 24114
INTELSAT 16 (IS-16)     
1 36397U 10006A   20118.50181946 -.00000240  00000-0  00000+0 0  9997
2 36397   0.0133 264.7025 0002016 148.8905 266.8031  1.00268899 37253
XM-5                    
1 37185U 10053A   20118.30625845 -.00000201  00000-0  00000+0 0  9991
2 37185   0.0153 266.8155 0002115 124.9373 209.0494  1.00272732 34960
INTELSAT 17 (IS-17)     
1 37238U 10065B   20118.18452244  .00000003  00000-0  00000-0 0  9990
2 37238   0.0197 246.4736 0002556 152.5182 309.0461  1.00271713 30958
INTELSAT NEW DAWN       
1 37392U 11016A   20118.52362843  .00000160  00000-0  00000-0 0  9995
2 37392   0.0363 129.6293 0001165 215.1920  92.4538  1.00265555 30826
INTELSAT 18 (IS-18)     
1 37834U 11056A   20118.76180615  .00000057  00000-0  00000-0 0  9996
2 37834   0.0113 249.8132 0003194 167.7762 252.8680  1.00272092 31462
INTELSAT 22 (IS-22)     
1 38098U 12011A   20118.53139243 -.00000055  00000-0  00000-0 0  9996
2 38098   0.0204 277.4078 0002382 132.0430  69.9140  1.00272073 29573
INTELSAT 19 (IS-19)     
1 38356U 12030A   20118.82134715 -.00000053  00000-0  00000-0 0  9993
2 38356   0.0113 255.4033 0003221 152.3239 270.2141  1.00270207 27989
INTELSAT 20 (IS-20)     
1 38740U 12043A   20118.53069454 -.00000020  00000-0  00000+0 0  9992
2 38740   0.0150 173.3114 0001578  13.7312 288.4660  1.00270980 28357
INTELSAT 21 (IS-21)     
1 38749U 12045A   20118.05448659 -.00000280  00000-0  00000-0 0  9997
2 38749   0.0373  96.1868 0002052 298.2159 142.7351  1.00272487 28069
INTELSAT 23 (IS-23)     
1 38867U 12057A   20118.43464780 -.00000280  00000-0  00000-0 0  9996
2 38867   0.0164 243.6913 0001818 137.5069 298.1604  1.00273792 27529
SIRIUS FM-6             
1 39360U 13058A   20118.56542122 -.00000012  00000-0  00000-0 0  9991
2 39360   0.0246 279.5487 0000896 340.1206  43.7271  1.00269921 23689
INTELSAT 30 (IS-30)     
1 40271U 14062A   20118.20350341 -.00000149  00000-0  00000+0 0  9991
2 40271   0.0167 263.0583 0001318 125.0951 165.7217  1.00294396 20288
INTELSAT 34 (IS-34)     
1 40874U 15039A   20118.43421163 -.00000281  00000-0  00000-0 0  9999
2 40874   0.0164 266.5803 0000924  10.9201  39.2085  1.00272186 17196
INTELSAT 31 (IS-31)     
1 41581U 16035A   20118.49806830 -.00000147  00000-0  00000+0 0  9996
2 41581   0.0157 248.7659 0002614 326.7824  84.6475  1.00272222 14210
INTELSAT 36 (IS-36)     
1 41747U 16053A   20118.53069454 -.00000020  00000-0  00000-0 0  9999
2 41747   0.0130 316.2440 0001388  23.2955 135.9650  1.00270956 13491
INTELSAT 33E (IS-33E)   
1 41748U 16053B   20118.79560743  .00000052  00000-0  00000-0 0  9999
2 41748   0.0386  19.4765 0001879  43.3154 139.8594  1.00271892 13777
INTELSAT 32E (IS-32E)   
1 41945U 17007B   20118.43665424 -.00000265  00000-0  00000+0 0  9997
2 41945   0.0197 264.8313 0000583  30.6608  34.4176  1.00272346 11763
INTELSAT 35E (IS-35E)   
1 42818U 17041A   20118.43839895 -.00000234  00000-0  00000-0 0  9997
2 42818   0.0235 227.7260 0002304 170.3364 301.1356  1.00270370 10396
INTELSAT 37E (IS-37E)   
1 42950U 17059A   20118.13243656 -.00000136  00000-0  00000+0 0  9994
2 42950   0.0123 248.1390 0002408 152.3623 204.7553  1.00269792  9563
AZERSPACE 2 (IS-38)     
1 43632U 18074A   20118.52607104  .00000141  00000-0  00000-0 0  9991
2 43632   0.0133 249.8489 0001297 140.6604  59.9548  1.00270192  6021
HORIZONS 3E             
1 43633U 18074B   20118.59707733 -.00000027  00000-0  00000-0 0  9992
2 43633   0.0191  34.5679 0000328 255.6312 309.7834  1.00271403  5875
INTELSAT 39 (IS-39)     
1 44476U 19049B   20118.52938600  .00000038  00000-0  00000+0 0  9993
2 44476   0.0148 267.8137 0000536  17.1865 183.4983  1.00271250  2709
